[{"OBJECT_NAME":"ONEWEB-0243","OBJECT_ID":"2021-045H","EPOCH":"2025-10-29T11:01:05.605824","MEAN_MOTION":13.15546571,"ECCENTRICITY":0.000193,"INCLINATION":87.8966,"RA_OF_ASC_NODE":305.2679,"ARG_OF_PERICENTER":104.2747,"MEAN_ANOMALY":255.8598,"EPHEMERIS_TYPE":0,"CLASSIFICATION_TYPE":"U","NORAD_CAT_ID":48774,"ELEMENT_SET_NO":999,"REV_AT_EPOCH":21402,"BSTAR":0.0005627,"MEAN_MOTION_DOT":2.25e-6,"MEAN_MOTION_DDOT":0},{"OBJECT_NAME":"ONEWEB-0222","OBJECT_ID":"2021-045J","EPOCH":"2025-10-29T12:26:40.297344","MEAN_MOTION":13.15549698,"ECCENTRICITY":0.0001976,"INCLINATION":87.8964,"RA_OF_ASC_NODE":305.2078,"ARG_OF_PERICENTER":96.2821,"MEAN_ANOMALY":263.8535,"EPHEMERIS_TYPE":0,"CLASSIFICATION_TYPE":"U","NORAD_CAT_ID":48775,"ELEMENT_SET_NO":999,"REV_AT_EPOCH":21407,"BSTAR":0.00014609,"MEAN_MOTION_DOT":6.8e-7,"MEAN_MOTION_DDOT":0},{"OBJECT_NAME":"ONEWEB-0244","OBJECT_ID":"2021-045K","EPOCH":"2025-10-29T11:14:48.268608","MEAN_MOTION":13.1554869,"ECCENTRICITY":0.0001876,"INCLINATION":87.897,"RA_OF_ASC_NODE":305.203,"ARG_OF_PERICENTER":96.0136,"MEAN_ANOMALY":264.1208,"EPHEMERIS_TYPE":0,"CLASSIFICATION_TYPE":"U","NORAD_CAT_ID":48776,"ELEMENT_SET_NO":999,"REV_AT_EPOCH":21463,"BSTAR":0.00050142,"MEAN_MOTION_DOT":2.02e-6,"MEAN_MOTION_DDOT":0},{"OBJECT_NAME":"ONEWEB-0247","OBJECT_ID":"2021-045L","EPOCH":"2025-10-29T11:10:14.206080","MEAN_MOTION":13.15549201,"ECCENTRICITY":0.0002266,"INCLINATION":87.8959,"RA_OF_ASC_NODE":305.2666,"ARG_OF_PERICENTER":118.7608,"MEAN_ANOMALY":241.3751,"EPHEMERIS_TYPE":0,"CLASSIFICATION_TYPE":"U","NORAD_CAT_ID":48777,"ELEMENT_SET_NO":999,"REV_AT_EPOCH":21407,"BSTAR":0.00057648,"MEAN_MOTION_DOT":2.3e-6,"MEAN_MOTION_DDOT":0},{"OBJECT_NAME":"ONEWEB-0245","OBJECT_ID":"2021-045M","EPOCH":"2025-10-29T11:03:23.037120","MEAN_MOTION":13.15550428,"ECCENTRICITY":0.000211,"INCLINATION":87.8963,"RA_OF_ASC_NODE":305.2314,"ARG_OF_PERICENTER":94.9978,"MEAN_ANOMALY":265.1393,"EPHEMERIS_TYPE":0,"CLASSIFICATION_TYPE":"U","NORAD_CAT_ID":48778,"ELEMENT_SET_NO":999,"REV_AT_EPOCH":21404,"BSTAR":0.00025923,"MEAN_MOTION_DOT":1.1e-6,"MEAN_MOTION_DDOT":0},{"OBJECT_NAME":"ONEWEB-0229","OBJECT_ID":"2021-045N","EPOCH":"2025-10-29T10:56:32.556768","MEAN_MOTION":13.15549313,"ECCENTRICITY":0.000185,"INCLINATION":87.8957,"RA_OF_ASC_NODE":305.2324,"ARG_OF_PERICENTER":98.8758,"MEAN_ANOMALY":261.2582,"EPHEMERIS_TYPE":0,"CLASSIFICATION_TYPE":"U","NORAD_CAT_ID":48779,"ELEMENT_SET_NO":999,"REV_AT_EPOCH":21407,"BSTAR":0.00043269,"MEAN_MOTION_DOT":1.76e-6,"MEAN_MOTION_DDOT":0},{"OBJECT_NAME":"ONEWEB-0228","OBJECT_ID":"2021-045P","EPOCH":"2025-10-29T11:44:39.698304","MEAN_MOTION":13.15549353,"ECCENTRICITY":0.0001884,"INCLINATION":87.8972,"RA_OF_ASC_NODE":305.2047,"ARG_OF_PERICENTER":94.7688,"MEAN_ANOMALY":265.3657,"EPHEMERIS_TYPE":0,"CLASSIFICATION_TYPE":"U","NORAD_CAT_ID":48780,"ELEMENT_SET_NO":999,"REV_AT_EPOCH":21399,"BSTAR":-0.00029135,"MEAN_MOTION_DOT":-9.7e-7,"MEAN_MOTION_DDOT":0},{"OBJECT_NAME":"ONEWEB-0232","OBJECT_ID":"2021-045Q","EPOCH":"2025-10-29T11:07:57.141120","MEAN_MOTION":13.15550136,"ECCENTRICITY":0.0001875,"INCLINATION":87.8972,"RA_OF_ASC_NODE":305.2006,"ARG_OF_PERICENTER":93.7934,"MEAN_ANOMALY":266.3411,"EPHEMERIS_TYPE":0,"CLASSIFICATION_TYPE":"U","NORAD_CAT_ID":48781,"ELEMENT_SET_NO":999,"REV_AT_EPOCH":21431,"BSTAR":0.00056427,"MEAN_MOTION_DOT":2.25e-6,"MEAN_MOTION_DDOT":0},{"OBJECT_NAME":"ONEWEB-0231","OBJECT_ID":"2021-045R","EPOCH":"2025-10-29T12:25:32.480256","MEAN_MOTION":13.15549217,"ECCENTRICITY":0.0001942,"INCLINATION":87.8956,"RA_OF_ASC_NODE":305.2387,"ARG_OF_PERICENTER":102.2378,"MEAN_ANOMALY":257.8969,"EPHEMERIS_TYPE":0,"CLASSIFICATION_TYPE":"U","NORAD_CAT_ID":48782,"ELEMENT_SET_NO":999,"REV_AT_EPOCH":21401,"BSTAR":0.00018087,"MEAN_MOTION_DOT":8.1e-7,"MEAN_MOTION_DDOT":0},{"OBJECT_NAME":"ONEWEB-0234","OBJECT_ID":"2021-045S","EPOCH":"2025-10-29T11:30:34.326144","MEAN_MOTION":13.15549245,"ECCENTRICITY":0.0002464,"INCLINATION":87.8964,"RA_OF_ASC_NODE":305.2179,"ARG_OF_PERICENTER":74.204,"MEAN_ANOMALY":285.9361,"EPHEMERIS_TYPE":0,"CLASSIFICATION_TYPE":"U","NORAD_CAT_ID":48783,"ELEMENT_SET_NO":999,"REV_AT_EPOCH":21414,"BSTAR":5.1248e-5,"MEAN_MOTION_DOT":3.2e-7,"MEAN_MOTION_DDOT":0},{"OBJECT_NAME":"ONEWEB-0238","OBJECT_ID":"2021-045T","EPOCH":"2025-10-29T11:30:58.079232","MEAN_MOTION":13.15546671,"ECCENTRICITY":0.0002067,"INCLINATION":87.8962,"RA_OF_ASC_NODE":305.2125,"ARG_OF_PERICENTER":83.505,"MEAN_ANOMALY":276.6315,"EPHEMERIS_TYPE":0,"CLASSIFICATION_TYPE":"U","NORAD_CAT_ID":48784,"ELEMENT_SET_NO":999,"REV_AT_EPOCH":21404,"BSTAR":9.2387e-5,"MEAN_MOTION_DOT":4.8e-7,"MEAN_MOTION_DDOT":0},{"OBJECT_NAME":"ONEWEB-0240","OBJECT_ID":"2021-045U","EPOCH":"2025-10-29T12:01:35.287968","MEAN_MOTION":13.15547177,"ECCENTRICITY":0.0002245,"INCLINATION":87.8968,"RA_OF_ASC_NODE":305.196,"ARG_OF_PERICENTER":94.6094,"MEAN_ANOMALY":265.5292,"EPHEMERIS_TYPE":0,"CLASSIFICATION_TYPE":"U","NORAD_CAT_ID":48785,"ELEMENT_SET_NO":999,"REV_AT_EPOCH":21407,"BSTAR":-0.00030155,"MEAN_MOTION_DOT":-1.01e-6,"MEAN_MOTION_DDOT":0},{"OBJECT_NAME":"ONEWEB-0246","OBJECT_ID":"2021-045V","EPOCH":"2025-10-29T11:53:35.894112","MEAN_MOTION":13.15548483,"ECCENTRICITY":0.0001818,"INCLINATION":87.8972,"RA_OF_ASC_NODE":305.2104,"ARG_OF_PERICENTER":96.9454,"MEAN_ANOMALY":263.1883,"EPHEMERIS_TYPE":0,"CLASSIFICATION_TYPE":"U","NORAD_CAT_ID":48786,"ELEMENT_SET_NO":999,"REV_AT_EPOCH":21394,"BSTAR":-0.00023913,"MEAN_MOTION_DOT":-7.7e-7,"MEAN_MOTION_DDOT":0},{"OBJECT_NAME":"ONEWEB-0210","OBJECT_ID":"2021-045W","EPOCH":"2025-10-29T11:17:05.515872","MEAN_MOTION":13.15548614,"ECCENTRICITY":0.0001889,"INCLINATION":87.897,"RA_OF_ASC_NODE":305.2151,"ARG_OF_PERICENTER":112.9575,"MEAN_ANOMALY":247.1755,"EPHEMERIS_TYPE":0,"CLASSIFICATION_TYPE":"U","NORAD_CAT_ID":48787,"ELEMENT_SET_NO":999,"REV_AT_EPOCH":21398,"BSTAR":0.0004203,"MEAN_MOTION_DOT":1.71e-6,"MEAN_MOTION_DDOT":0},{"OBJECT_NAME":"ONEWEB-0214","OBJECT_ID":"2021-045X","EPOCH":"2025-10-29T11:29:38.785632","MEAN_MOTION":13.15548473,"ECCENTRICITY":0.000168,"INCLINATION":87.8973,"RA_OF_ASC_NODE":305.1996,"ARG_OF_PERICENTER":105.9249,"MEAN_ANOMALY":254.2066,"EPHEMERIS_TYPE":0,"CLASSIFICATION_TYPE":"U","NORAD_CAT_ID":48788,"ELEMENT_SET_NO":999,"REV_AT_EPOCH":21395,"BSTAR":0.00032417,"MEAN_MOTION_DOT":1.35e-6,"MEAN_MOTION_DDOT":0},{"OBJECT_NAME":"ONEWEB-0221","OBJECT_ID":"2021-045Y","EPOCH":"2025-10-29T11:39:54.396864","MEAN_MOTION":13.15549645,"ECCENTRICITY":0.0001999,"INCLINATION":87.8962,"RA_OF_ASC_NODE":305.2203,"ARG_OF_PERICENTER":98.0593,"MEAN_ANOMALY":262.0764,"EPHEMERIS_TYPE":0,"CLASSIFICATION_TYPE":"U","NORAD_CAT_ID":48789,"ELEMENT_SET_NO":999,"REV_AT_EPOCH":21404,"BSTAR":-1.8804e-5,"MEAN_MOTION_DOT":6.0e-8,"MEAN_MOTION_DDOT":0},{"OBJECT_NAME":"ONEWEB-0213","OBJECT_ID":"2021-045Z","EPOCH":"2025-10-29T11:23:56.418720","MEAN_MOTION":13.15548408,"ECCENTRICITY":0.0001936,"INCLINATION":87.8961,"RA_OF_ASC_NODE":305.2316,"ARG_OF_PERICENTER":100.5915,"MEAN_ANOMALY":259.5434,"EPHEMERIS_TYPE":0,"CLASSIFICATION_TYPE":"U","NORAD_CAT_ID":48790,"ELEMENT_SET_NO":999,"REV_AT_EPOCH":21410,"BSTAR":0.00025136,"MEAN_MOTION_DOT":1.07e-6,"MEAN_MOTION_DDOT":0}]
