ONEWEB-0243             
1 48774U 21045H   25302.45909266  .00000225  00000+0  56270-3 0  9996
2 48774  87.8966 305.2679 0001930 104.2747 255.8598 13.15546571214025
ONEWEB-0222             
1 48775U 21045J   25302.51852196  .00000068  00000+0  14609-3 0  9998
2 48775  87.8964 305.2078 0001976  96.2821 263.8535 13.15549698214078
ONEWEB-0244             
1 48776U 21045K   25302.46861422  .00000202  00000+0  50142-3 0  9997
2 48776  87.8970 305.2030 0001876  96.0136 264.1208 13.15548690214634
ONEWEB-0247             
1 48777U 21045L   25302.46544220  .00000230  00000+0  57648-3 0  9991
2 48777  87.8959 305.2666 0002266 118.7608 241.3751 13.15549201214074
ONEWEB-0245             
1 48778U 21045M   25302.46068330  .00000110  00000+0  25923-3 0  9993
2 48778  87.8963 305.2314 0002110  94.9978 265.1393 13.15550428214049
ONEWEB-0229             
1 48779U 21045N   25302.45593237  .00000176  00000+0  43269-3 0  9997
2 48779  87.8957 305.2324 0001850  98.8758 261.2582 13.15549313214074
ONEWEB-0228             
1 48780U 21045P   25302.48934836 -.00000097  00000+0 -29135-3 0  9996
2 48780  87.8972 305.2047 0001884  94.7688 265.3657 13.15549353213991
ONEWEB-0232             
1 48781U 21045Q   25302.46385580  .00000225  00000+0  56427-3 0  9996
2 48781  87.8972 305.2006 0001875  93.7934 266.3411 13.15550136214317
ONEWEB-0231             
1 48782U 21045R   25302.51773704  .00000081  00000+0  18087-3 0  9992
2 48782  87.8956 305.2387 0001942 102.2378 257.8969 13.15549217214013
ONEWEB-0234             
1 48783U 21045S   25302.47956396  .00000032  00000+0  51248-4 0  9991
2 48783  87.8964 305.2179 0002464  74.2040 285.9361 13.15549245214149
ONEWEB-0238             
1 48784U 21045T   25302.47983888  .00000048  00000+0  92387-4 0  9994
2 48784  87.8962 305.2125 0002067  83.5050 276.6315 13.15546671214047
ONEWEB-0240             
1 48785U 21045U   25302.50110287 -.00000101  00000+0 -30155-3 0  9990
2 48785  87.8968 305.1960 0002245  94.6094 265.5292 13.15547177214075
ONEWEB-0246             
1 48786U 21045V   25302.49555433 -.00000077  00000+0 -23913-3 0  9991
2 48786  87.8972 305.2104 0001818  96.9454 263.1883 13.15548483213948
ONEWEB-0210             
1 48787U 21045W   25302.47020273  .00000171  00000+0  42030-3 0  9993
2 48787  87.8970 305.2151 0001889 112.9575 247.1755 13.15548614213980
ONEWEB-0214             
1 48788U 21045X   25302.47892113  .00000135  00000+0  32417-3 0  9992
2 48788  87.8973 305.1996 0001680 105.9249 254.2066 13.15548473213953
ONEWEB-0221             
1 48789U 21045Y   25302.48604626  .00000006  00000+0 -18804-4 0  9997
2 48789  87.8962 305.2203 0001999  98.0593 262.0764 13.15549645214046
ONEWEB-0213             
1 48790U 21045Z   25302.47495855  .00000107  00000+0  25136-3 0  9996
2 48790  87.8961 305.2316 0001936 100.5915 259.5434 13.15548408214108
